OBJECT_NAME,OBJECT_ID,EPOCH,MEAN_MOTION,ECCENTRICITY,INCLINATION,RA_OF_ASC_NODE,ARG_OF_PERICENTER,MEAN_ANOMALY,EPHEMERIS_TYPE,CLASSIFICATION_TYPE,NORAD_CAT_ID,ELEMENT_SET_NO,REV_AT_EPOCH,BSTAR,MEAN_MOTION_DOT,MEAN_MOTION_DDOT
ZHONGXING-2C,2015-063A,2026-06-10T12:04:15.845952,1.00274320,.00074554,0.2554,90.1143,97.5928,355.6508,0,U,41021,999,3891,0,-.306E-5,0
GSAT-15,2015-065A,2026-06-09T08:38:55.419360,1.00270540,.00039233,0.0513,110.7137,328.9417,41.3237,0,U,41028,999,3872,0,-.241E-5,0
BADR-7 (ARABSAT-6B),2015-065B,2026-06-10T13:24:48.783744,1.00271221,.0003474,0.0341,233.8502,325.2555,287.0007,0,U,41029,999,3870,0,.162E-5,0
LAOSAT 1,2015-067A,2026-06-10T11:59:38.503680,1.00273012,.00023945,0.0394,177.6609,217.2310,172.3915,0,U,41034,999,3879,0,-.325E-5,0
TELSTAR 12V,2015-068A,2026-06-09T09:50:41.254080,1.00271046,.0002305,0.0235,65.7170,10.9367,313.8139,0,U,41036,999,3854,0,-.102E-5,0
ELEKTRO-L 2,2015-074A,2026-06-10T01:14:32.122752,1.00271662,.00008802,6.6749,70.6113,278.5236,273.4303,0,U,41105,999,3843,0,-.102E-5,0
EXPRESS-AMU1,2015-082A,2026-06-10T13:27:48.496608,1.00270718,.00027061,0.0181,1.0619,80.6942,55.2042,0,U,41191,999,3820,0,.173E-5,0
GAOFEN-4,2015-083A,2026-06-10T15:20:45.203712,1.00272666,.00041746,0.3391,83.8017,110.8931,40.2058,0,U,41194,999,3846,0,-.317E-5,0
BELINTERSAT-1,2016-001A,2026-06-10T12:35:59.643168,1.00270023,.00019808,0.0489,120.1871,286.0943,93.0989,0,U,41238,999,3817,0,.125E-5,0
IRNSS-1E,2016-003A,2026-06-09T15:34:40.861056,1.00268584,.00179263,33.2186,59.8594,179.3195,4.1979,0,U,41241,999,3800,0,-.299E-5,0
EUTELSAT 9B,2016-005A,2026-06-10T13:20:04.239168,1.00272792,.00017182,0.0636,73.1457,333.6273,61.1541,0,U,41310,999,3805,0,.79E-6,0
SES-9,2016-013A,2026-06-09T01:52:23.570976,1.00273663,.000199,0.0108,336.9667,107.7708,309.1219,0,U,41380,999,3735,0,-.329E-5,0
EUTELSAT 65 WEST A,2016-014A,2026-06-10T12:58:56.260416,1.00271604,.00021734,0.0515,12.6928,57.3562,318.4040,0,U,41382,999,3745,0,-.259E-5,0
IRNSS-1F,2016-015A,2026-06-10T13:26:41.103744,1.00279296,.00165691,5.3324,96.9306,186.6446,209.6470,0,U,41384,999,3760,0,.175E-5,0
BEIDOU-2 IGSO-6,2016-021A,2026-06-08T23:55:01.304832,1.00261117,.00571186,60.2137,38.1225,231.5364,79.8340,0,U,41434,999,3739,0,-.154E-5,0
IRNSS-1G,2016-027A,2026-06-10T07:03:48.892032,1.00269562,.0007507,5.1812,97.6325,353.2173,43.3330,0,U,41469,999,3711,0,-.317E-5,0
JCSAT-2B,2016-028A,2026-06-09T17:29:31.419168,1.00269565,.0000778,0.0181,343.7786,117.9993,212.7061,0,U,41471,999,3705,0,-.148E-5,0
THAICOM 8,2016-031A,2026-06-10T10:58:38.906400,1.00270144,.00036177,0.0698,48.3134,9.6365,84.0609,0,U,41552,999,3665,0,-.104E-5,0
INTELSAT 31 (IS-31),2016-035A,2026-06-10T12:50:12.096672,1.00269670,.00010055,0.0159,267.2572,335.2563,113.8830,0,U,41581,999,3661,0,-.133E-5,0
BEIDOU-2 G7,2016-037A,2026-06-10T15:54:59.496768,1.00267694,.00071003,1.7027,69.2625,3.2654,175.7564,0,U,41586,999,682,0,-.336E-5,0
ABS-2A (MONGOLSAT-1),2016-038A,2026-06-09T20:32:10.142016,1.00267595,.0001258,0.0180,325.8688,57.0366,258.1105,0,U,41588,999,3663,0,0,0
EUTELSAT 117 WEST B,2016-038B,2026-06-09T00:48:06.000192,1.00276750,.00003453,0.0422,159.6913,138.3370,214.4010,0,U,41589,999,3658,0,.4E-7,0
BRISAT,2016-039A,2026-06-09T22:36:28.785312,1.00268701,.00019949,0.0231,320.1453,118.8641,308.9105,0,U,41591,999,3653,0,0,0
ECHOSTAR 18,2016-039B,2026-06-09T01:04:05.071296,1.00271708,.00013931,0.0178,340.8727,102.1330,129.0878,0,U,41592,999,3654,0,-.265E-5,0
MUOS-5,2016-041A,2026-06-10T12:47:49.825248,1.00271089,.01970859,2.2188,301.5181,260.8783,143.2175,0,U,41622,999,3702,0,-.96E-6,0
TIANTONG-1 1,2016-048A,2026-06-10T14:56:42.066240,1.00269805,.00059526,3.8360,43.3545,43.9245,137.2957,0,U,41725,999,3620,0,-.302E-5,0
JCSAT-16,2016-050A,2026-06-09T05:27:58.431168,1.00270108,.0000921,0.0177,356.2594,90.5519,36.7275,0,U,41729,999,3599,0,-.234E-5,0
USA 270,2016-052A,2026-06-08T02:16:56.129376,1.00284145,.0008515,4.1755,77.3049,337.9683,59.8197,0,U,41744,999,2804,0,.95E-6,0
USA 271,2016-052B,2026-06-07T19:08:42.969984,1.00262239,.0010783,4.1460,77.3775,157.2143,71.4983,0,U,41745,999,2782,0,-.344E-5,0
INTELSAT 36 (IS-36),2016-053A,2026-06-10T13:37:02.610912,1.00270452,.00018541,0.0119,0.9491,332.4947,198.2350,0,U,41747,999,3589,0,-.7E-7,0
INSAT-3DR,2016-054A,2026-06-10T13:38:17.491200,1.00270370,.00105174,0.0882,87.3235,186.7935,263.3666,0,U,41752,999,3575,0,-.59E-6,0
